YAM-7                   
1 60504U 24149AN  26068.71799904  .00009009  00000+0  30984-3 0  9997
2 60504  97.3828 149.4631 0001973 296.5121  63.5918 15.30304554 86835
STARLINK-36089          
1 66947U 25286Y   26068.04475590  .00021521  00000+0  73641-3 0  9995
2 66947  53.1601   1.7547 0001212  92.3094 267.8046 15.30209605 15311
